{
  "type": "FeatureCollection",
  "features": [
    {
      "type": "Feature",
      "properties": {
        "norad_id": 30921,
        "name": "FENGYUN 1C DEB",
        "group": "fengyun-1c-debris",
        "lat": 26.21135834172545,
        "lon": 85.19643131785604,
        "alt_km": 771.8576708759429,
        "timestamp": "2025-12-27T19:21:59.028951+00:00",
        "meta_object_name": "FENGYUN 1C DEB",
        "meta_object_id": "1999-025AZK",
        "meta_epoch": "2025-12-27T05:56:50.788320",
        "meta_mean_motion": 14.32863701,
        "meta_eccentricity": 0.0016381,
        "meta_inclination": 98.8416,
        "meta_ra_of_asc_node": 89.0209,
        "meta_arg_of_pericenter": 350.858,
        "meta_mean_anomaly": 33.183,
        "meta_ephemeris_type": 0,
        "meta_classification_type": "U",
        "meta_norad_cat_id": 30921,
        "meta_element_set_no": 999,
        "meta_rev_at_epoch": 97032,
        "meta_bstar": 0.001874,
        "meta_mean_motion_dot": 5.08e-05,
        "meta_mean_motion_ddot": 0,
        "tle_line1": "1 30921U 99025AZK 25361.24781005  .00005080  00000+0  18740-2 0  9998",
        "tle_line2": "2 30921  98.8416  89.0209 0016381 350.8580  33.1830 14.32863701970323"
      },
      "geometry": {
        "type": "Point",
        "coordinates": [
          85.19643131785604,
          26.21135834172545
        ]
      }
    },
    {
      "type": "Feature",
      "properties": {
        "norad_id": 30922,
        "name": "FENGYUN 1C DEB",
        "group": "fengyun-1c-debris",
        "lat": -41.24977809037097,
        "lon": -170.42891706310158,
        "alt_km": 849.0941022643374,
        "timestamp": "2025-12-27T19:21:59.028960+00:00",
        "meta_object_name": "FENGYUN 1C DEB",
        "meta_object_id": "1999-025AZL",
        "meta_epoch": "2025-12-26T12:32:51.508896",
        "meta_mean_motion": 14.17493129,
        "meta_eccentricity": 0.0014014,
        "meta_inclination": 98.6396,
        "meta_ra_of_asc_node": 15.985,
        "meta_arg_of_pericenter": 15.2933,
        "meta_mean_anomaly": 137.4014,
        "meta_ephemeris_type": 0,
        "meta_classification_type": "U",
        "meta_norad_cat_id": 30922,
        "meta_element_set_no": 999,
        "meta_rev_at_epoch": 96759,
        "meta_bstar": 0.0006125,
        "meta_mean_motion_dot": 1.201e-05,
        "meta_mean_motion_ddot": 0,
        "tle_line1": "1 30922U 99025AZL 25360.52281839  .00001201  00000+0  61250-3 0  9995",
        "tle_line2": "2 30922  98.6396  15.9850 0014014  15.2933 137.4014 14.17493129967597"
      },
      "geometry": {
        "type": "Point",
        "coordinates": [
          -170.42891706310158,
          -41.24977809037097
        ]
      }
    },
    {
      "type": "Feature",
      "properties": {
        "norad_id": 30925,
        "name": "FENGYUN 1C DEB",
        "group": "fengyun-1c-debris",
        "lat": -54.79986039181003,
        "lon": 147.03235724289698,
        "alt_km": 762.5476925293679,
        "timestamp": "2025-12-27T19:21:59.028969+00:00",
        "meta_object_name": "FENGYUN 1C DEB",
        "meta_object_id": "1999-025AZP",
        "meta_epoch": "2025-12-26T15:24:53.741088",
        "meta_mean_motion": 14.43349249,
        "meta_eccentricity": 0.003338,
        "meta_inclination": 98.8809,
        "meta_ra_of_asc_node": 133.0128,
        "meta_arg_of_pericenter": 197.4649,
        "meta_mean_anomaly": 178.3104,
        "meta_ephemeris_type": 0,
        "meta_classification_type": "U",
        "meta_norad_cat_id": 30925,
        "meta_element_set_no": 999,
        "meta_rev_at_epoch": 97273,
        "meta_bstar": 0.0028008,
        "meta_mean_motion_dot": 9.474e-05,
        "meta_mean_motion_ddot": 0,
        "tle_line1": "1 30925U 99025AZP 25360.64228867  .00009474  00000+0  28008-2 0  9996",
        "tle_line2": "2 30925  98.8809 133.0128 0033380 197.4649 178.3104 14.43349249972733"
      },
      "geometry": {
        "type": "Point",
        "coordinates": [
          147.03235724289698,
          -54.79986039181003
        ]
      }
    },
    {
      "type": "Feature",
      "properties": {
        "norad_id": 30926,
        "name": "FENGYUN 1C DEB",
        "group": "fengyun-1c-debris",
        "lat": 74.25249447132511,
        "lon": -89.10070858101709,
        "alt_km": 617.1139552555242,
        "timestamp": "2025-12-27T19:21:59.028978+00:00",
        "meta_object_name": "FENGYUN 1C DEB",
        "meta_object_id": "1999-025AZQ",
        "meta_epoch": "2025-12-26T18:50:41.165088",
        "meta_mean_motion": 14.8955659,
        "meta_eccentricity": 0.01642283,
        "meta_inclination": 98.8036,
        "meta_ra_of_asc_node": 303.1023,
        "meta_arg_of_pericenter": 336.7027,
        "meta_mean_anomaly": 22.6802,
        "meta_ephemeris_type": 0,
        "meta_classification_type": "U",
        "meta_norad_cat_id": 30926,
        "meta_element_set_no": 999,
        "meta_rev_at_epoch": 976,
        "meta_bstar": 0.00069862808,
        "meta_mean_motion_dot": 8.521e-05,
        "meta_mean_motion_ddot": 0,
        "tle_line1": "1 30926U 99025AZQ 25360.78519867  .00008521  00000+0  69863-3 0  9992",
        "tle_line2": "2 30926  98.8036 303.1023 0164228 336.7027  22.6802 14.89556590  9763"
      },
      "geometry": {
        "type": "Point",
        "coordinates": [
          -89.10070858101709,
          74.25249447132511
        ]
      }
    },
    {
      "type": "Feature",
      "properties": {
        "norad_id": 30927,
        "name": "FENGYUN 1C DEB",
        "group": "fengyun-1c-debris",
        "lat": -53.63243980129909,
        "lon": -130.12639848654308,
        "alt_km": 867.1521625840514,
        "timestamp": "2025-12-27T19:21:59.028987+00:00",
        "meta_object_name": "FENGYUN 1C DEB",
        "meta_object_id": "1999-025AZR",
        "meta_epoch": "2025-12-27T02:54:37.100736",
        "meta_mean_motion": 14.0905928,
        "meta_eccentricity": 0.00983811,
        "meta_inclination": 99.1808,
        "meta_ra_of_asc_node": 61.8617,
        "meta_arg_of_pericenter": 325.1538,
        "meta_mean_anomaly": 34.3215,
        "meta_ephemeris_type": 0,
        "meta_classification_type": "U",
        "meta_norad_cat_id": 30927,
        "meta_element_set_no": 999,
        "meta_rev_at_epoch": 95886,
        "meta_bstar": 0.0017895793,
        "meta_mean_motion_dot": 3.198e-05,
        "meta_mean_motion_ddot": 0,
        "tle_line1": "1 30927U 99025AZR 25361.12126274  .00003198  00000+0  17896-2 0  9991",
        "tle_line2": "2 30927  99.1808  61.8617 0098381 325.1538  34.3215 14.09059280958865"
      },
      "geometry": {
        "type": "Point",
        "coordinates": [
          -130.12639848654308,
          -53.63243980129909
        ]
      }
    },
    {
      "type": "Feature",
      "properties": {
        "norad_id": 30928,
        "name": "FENGYUN 1C DEB",
        "group": "fengyun-1c-debris",
        "lat": -29.886724765374336,
        "lon": -96.26338102085344,
        "alt_km": 1454.2235323678578,
        "timestamp": "2025-12-27T19:21:59.028996+00:00",
        "meta_object_name": "FENGYUN 1C DEB",
        "meta_object_id": "1999-025AZS",
        "meta_epoch": "2025-12-26T17:37:41.302848",
        "meta_mean_motion": 13.22258776,
        "meta_eccentricity": 0.0449838,
        "meta_inclination": 98.8822,
        "meta_ra_of_asc_node": 87.9777,
        "meta_arg_of_pericenter": 357.5686,
        "meta_mean_anomaly": 153.3904,
        "meta_ephemeris_type": 0,
        "meta_classification_type": "U",
        "meta_norad_cat_id": 30928,
        "meta_element_set_no": 999,
        "meta_rev_at_epoch": 90533,
        "meta_bstar": 0.0012328775,
        "meta_mean_motion_dot": 8.4e-06,
        "meta_mean_motion_ddot": 0,
        "tle_line1": "1 30928U 99025AZS 25360.73450582  .00000840  00000+0  12329-2 0  9997",
        "tle_line2": "2 30928  98.8822  87.9777 0449838 357.5686 153.3904 13.22258776905330"
      },
      "geometry": {
        "type": "Point",
        "coordinates": [
          -96.26338102085344,
          -29.886724765374336
        ]
      }
    },
    {
      "type": "Feature",
      "properties": {
        "norad_id": 30930,
        "name": "FENGYUN 1C DEB",
        "group": "fengyun-1c-debris",
        "lat": 65.6829000741265,
        "lon": -131.92869708401986,
        "alt_km": 711.2612357502412,
        "timestamp": "2025-12-27T19:21:59.029005+00:00",
        "meta_object_name": "FENGYUN 1C DEB",
        "meta_object_id": "1999-025AZU",
        "meta_epoch": "2025-12-26T01:20:20.657760",
        "meta_mean_motion": 14.37418558,
        "meta_eccentricity": 0.01096221,
        "meta_inclination": 98.2142,
        "meta_ra_of_asc_node": 27.7556,
        "meta_arg_of_pericenter": 66.7393,
        "meta_mean_anomaly": 348.8311,
        "meta_ephemeris_type": 0,
        "meta_classification_type": "U",
        "meta_norad_cat_id": 30930,
        "meta_element_set_no": 999,
        "meta_rev_at_epoch": 98523,
        "meta_bstar": 0.00033220225,
        "meta_mean_motion_dot": 1.022e-05,
        "meta_mean_motion_ddot": 0,
        "tle_line1": "1 30930U 99025AZU 25360.05579465  .00001022  00000+0  33220-3 0  9994",
        "tle_line2": "2 30930  98.2142  27.7556 0109622  66.7393 348.8311 14.37418558985230"
      },
      "geometry": {
        "type": "Point",
        "coordinates": [
          -131.92869708401986,
          65.6829000741265
        ]
      }
    }
  ]
}